JY1SAT (JO-97)          
1 43803U 18099AX  26068.68634132  .00017774  00000+0  60804-3 0  9996
2 43803  97.4249 131.3625 0004723 256.6795 103.3919 15.30302628398390
STARLINK-35712          
1 66215U 25244K   26068.76276548  .00013640  00000+0  47190-3 0  9991
2 66215  53.1612 229.3588 0000290 142.6213 217.4808 15.30192577 21673
